start=new Date('2022-06-05T00:00:00.000Z').valueOf();
sats=[{"NORAD_CAT_ID":"52704","TIME_SYSTEM":"UTC","MEAN_MOTION_DOT":"0.00002207","EPHEMERIS_TYPE":"0","PERIOD":"91.532","MEAN_MOTION_DDOT":"0.0000000000000","OBJECT_NAME":"STARLINK-3999","MEAN_MOTION":"15.73213354","ELEMENT_SET_NO":"999","REV_AT_EPOCH":"342","RA_OF_ASC_NODE":"213.7158","OBJECT_TYPE":"PAYLOAD","TLE_LINE2":"2 52704  53.2176 213.7158 0002307  29.3916 330.7234 15.73213354  3428","COUNTRY_CODE":"US","FILE":"3480894","RCS_SIZE":"MEDIUM","SITE":"AFETR","TLE_LINE1":"1 52704U 22053BA  22155.42242776  .00002207  00000-0  20141-4 0  9992","EPOCH":"2022-06-04T10:08:17.758464","DECAY_DATE":null,"CENTER_NAME":"EARTH","SEMIMAJOR_AXIS":"6727.857","PERIAPSIS":"348.170","BSTAR":"0.00002014100000","LAUNCH_DATE":"2022-05-18","ARG_OF_PERICENTER":"29.3916","INCLINATION":"53.2176","ECCENTRICITY":"0.00023070","MEAN_ELEMENT_THEORY":"SGP4","APOAPSIS":"351.274","CLASSIFICATION_TYPE":"U","MEAN_ANOMALY":"330.7234","OBJECT_ID":"2022-053BA","GP_ID":"205354504","REF_FRAME":"TEME"},{"DECAY_DATE":null,"EPOCH":"2022-06-04T13:10:48.362304","SEMIMAJOR_AXIS":"6727.796","CENTER_NAME":"EARTH","TLE_LINE1":"1 52705U 22053BB  22155.54917086  .00030888  00000-0  22335-3 0  9991","ECCENTRICITY":"0.00020650","ARG_OF_PERICENTER":"36.4777","INCLINATION":"53.2153","MEAN_ELEMENT_THEORY":"SGP4","PERIAPSIS":"348.271","LAUNCH_DATE":"2022-05-18","BSTAR":"0.00022335000000","OBJECT_ID":"2022-053BB","APOAPSIS":"351.050","MEAN_ANOMALY":"323.6383","CLASSIFICATION_TYPE":"U","GP_ID":"205357604","REF_FRAME":"TEME","EPHEMERIS_TYPE":"0","MEAN_MOTION_DOT":"0.00030888","NORAD_CAT_ID":"52705","TIME_SYSTEM":"UTC","REV_AT_EPOCH":"301","ELEMENT_SET_NO":"999","PERIOD":"91.531","MEAN_MOTION":"15.73234866","MEAN_MOTION_DDOT":"0.0000000000000","OBJECT_NAME":"STARLINK-3844","FILE":"3481021","COUNTRY_CODE":"US","OBJECT_TYPE":"PAYLOAD","TLE_LINE2":"2 52705  53.2153 213.0833 0002065  36.4777 323.6383 15.73234866  3014","RA_OF_ASC_NODE":"213.0833","SITE":"AFETR","RCS_SIZE":"MEDIUM"},{"COUNTRY_CODE":"US","FILE":"3480894","TLE_LINE2":"2 52706  53.2147 213.4004 0001864  33.0808 327.0329 15.73224241  3436","OBJECT_TYPE":"PAYLOAD","RA_OF_ASC_NODE":"213.4004","SITE":"AFETR","RCS_SIZE":"LARGE","EPHEMERIS_TYPE":"0","MEAN_MOTION_DOT":"0.00009928","NORAD_CAT_ID":"52706","TIME_SYSTEM":"UTC","REV_AT_EPOCH":"343","ELEMENT_SET_NO":"999","MEAN_MOTION":"15.73224241","PERIOD":"91.532","MEAN_MOTION_DDOT":"0.0000000000000","OBJECT_NAME":"STARLINK-3970","OBJECT_ID":"2022-053BC","APOAPSIS":"350.945","MEAN_ANOMALY":"327.0329","CLASSIFICATION_TYPE":"U","GP_ID":"205354186","REF_FRAME":"TEME","DECAY_DATE":null,"EPOCH":"2022-06-04T11:39:28.123488","SEMIMAJOR_AXIS":"6727.826","CENTER_NAME":"EARTH","TLE_LINE1":"1 52706U 22053BC  22155.48574217  .00009928  00000-0  75000-4 0  9999","ECCENTRICITY":"0.00018640","INCLINATION":"53.2147","ARG_OF_PERICENTER":"33.0808","MEAN_ELEMENT_THEORY":"SGP4","PERIAPSIS":"348.437","LAUNCH_DATE":"2022-05-18","BSTAR":"0.00007500000000"},{"RA_OF_ASC_NODE":"213.0827","TLE_LINE2":"2 52707  53.2168 213.0827 0002634  25.7851 334.3300 15.73205264  3503","OBJECT_TYPE":"PAYLOAD","FILE":"3480894","COUNTRY_CODE":"US","RCS_SIZE":"MEDIUM","SITE":"AFETR","TIME_SYSTEM":"UTC","NORAD_CAT_ID":"52707","MEAN_MOTION_DOT":"0.00001473","EPHEMERIS_TYPE":"0","PERIOD":"91.533","OBJECT_NAME":"STARLINK-4007","MEAN_MOTION_DDOT":"0.0000000000000","MEAN_MOTION":"15.73205264","ELEMENT_SET_NO":"999","REV_AT_EPOCH":"350","CLASSIFICATION_TYPE":"U","MEAN_ANOMALY":"334.3300","APOAPSIS":"351.517","OBJECT_ID":"2022-053BD","REF_FRAME":"TEME","GP_ID":"205354292","TLE_LINE1":"1 52707U 22053BD  22155.54895955  .00001473  00000-0  14922-4 0  9995","CENTER_NAME":"EARTH","SEMIMAJOR_AXIS":"6727.880","EPOCH":"2022-06-04T13:10:30.105120","DECAY_DATE":null,"BSTAR":"0.00001492200000","LAUNCH_DATE":"2022-05-18","PERIAPSIS":"347.973","MEAN_ELEMENT_THEORY":"SGP4","ARG_OF_PERICENTER":"25.7851","INCLINATION":"53.2168","ECCENTRICITY":"0.00026340"},{"SITE":"AFETR","RCS_SIZE":"LARGE","TLE_LINE2":"2 52708  53.2159 213.0818 0002473  30.2825 329.8338 15.73223226  3011","OBJECT_TYPE":"PAYLOAD","FILE":"3481049","COUNTRY_CODE":"US","RA_OF_ASC_NODE":"213.0818","ELEMENT_SET_NO":"999","REV_AT_EPOCH":"301","MEAN_MOTION":"15.73223226","PERIOD":"91.532","MEAN_MOTION_DDOT":"0.0000000000000","OBJECT_NAME":"STARLINK-3962","MEAN_MOTION_DOT":"0.00025494","EPHEMERIS_TYPE":"0","NORAD_CAT_ID":"52708","TIME_SYSTEM":"UTC","GP_ID":"205357616","REF_FRAME":"TEME","OBJECT_ID":"2022-053BE","APOAPSIS":"351.358","CLASSIFICATION_TYPE":"U","MEAN_ANOMALY":"329.8338","INCLINATION":"53.2159","ARG_OF_PERICENTER":"30.2825","ECCENTRICITY":"0.00024730","MEAN_ELEMENT_THEORY":"SGP4","PERIAPSIS":"348.030","BSTAR":"0.00018532000000","LAUNCH_DATE":"2022-05-18","EPOCH":"2022-06-04T13:10:21.188640","DECAY_DATE":null,"CENTER_NAME":"EARTH","SEMIMAJOR_AXIS":"6727.829","TLE_LINE1":"1 52708U 22053BE  22155.54885635  .00025494  00000-0  18532-3 0  9999"}];
